STARLINK-1169           
1 45061U 20006T   26068.85561674 -.00000755  00000+0 -13365-4 0  9998
2 45061  53.1610 280.2206 0001444  99.1509 260.9655 15.30189766336573
CELESTIS-17 & SHERPA-FX1
1 47486U 21006CB  26068.64311433  .00007207  00000+0  24301-3 0  9993
2 47486  97.2397 112.1052 0006630 178.1385 181.9882 15.30994801284065
